start=new Date('2022-09-08T00:00:00.000Z').valueOf();
sats=[{"OBJECT_NAME":"STARLINK-2402","RA_OF_ASC_NODE":"234.6506","SEMIMAJOR_AXIS":"6925.379","MEAN_MOTION":"15.06389958","ECCENTRICITY":"0.00016360","TIME_SYSTEM":"UTC","REV_AT_EPOCH":"8383","ARG_OF_PERICENTER":"62.0753","EPHEMERIS_TYPE":"0","PERIAPSIS":"546.111","NORAD_CAT_ID":"47819","MEAN_MOTION_DDOT":"0.0000000000000","SITE":"AFETR","PERIOD":"95.593","COUNTRY_CODE":"US","ELEMENT_SET_NO":"999","APOAPSIS":"548.377","TLE_LINE2":"2 47819  53.0533 234.6506 0001636  62.0753 298.0401 15.06389958 83835","RCS_SIZE":"LARGE","DECAY_DATE":null,"LAUNCH_DATE":"2021-03-11","MEAN_MOTION_DOT":"-0.00001093","GP_ID":"211965067","CLASSIFICATION_TYPE":"U","BSTAR":"-0.00005452000000","OBJECT_ID":"2021-018AJ","INCLINATION":"53.0533","OBJECT_TYPE":"PAYLOAD","TLE_LINE1":"1 47819U 21018AJ  22250.38035893 -.00001093  00000-0 -54520-4 0  9996","FILE":"3562217","MEAN_ELEMENT_THEORY":"SGP4","EPOCH":"2022-09-07T09:07:43.011552","CENTER_NAME":"EARTH","REF_FRAME":"TEME","MEAN_ANOMALY":"298.0401"},{"MEAN_MOTION":"15.06397388","ECCENTRICITY":"0.00014940","TIME_SYSTEM":"UTC","REV_AT_EPOCH":"8375","OBJECT_NAME":"STARLINK-2403","RA_OF_ASC_NODE":"242.6699","SEMIMAJOR_AXIS":"6925.357","EPHEMERIS_TYPE":"0","ARG_OF_PERICENTER":"77.1725","SITE":"AFETR","PERIOD":"95.592","COUNTRY_CODE":"US","ELEMENT_SET_NO":"999","APOAPSIS":"548.256","NORAD_CAT_ID":"47820","PERIAPSIS":"546.187","MEAN_MOTION_DDOT":"0.0000000000000","MEAN_MOTION_DOT":"0.00000451","GP_ID":"212008074","CLASSIFICATION_TYPE":"U","TLE_LINE2":"2 47820  53.0531 242.6699 0001494  77.1725 282.9431 15.06397388 83757","DECAY_DATE":null,"RCS_SIZE":"LARGE","LAUNCH_DATE":"2021-03-11","OBJECT_ID":"2021-018AK","INCLINATION":"53.0531","BSTAR":"0.00004916500000","OBJECT_TYPE":"PAYLOAD","TLE_LINE1":"1 47820U 21018AK  22250.82637609  .00000451  00000-0  49165-4 0  9994","FILE":"3563022","REF_FRAME":"TEME","MEAN_ANOMALY":"282.9431","MEAN_ELEMENT_THEORY":"SGP4","CENTER_NAME":"EARTH","EPOCH":"2022-09-07T19:49:58.894176"},{"RA_OF_ASC_NODE":"234.2591","SEMIMAJOR_AXIS":"6925.353","OBJECT_NAME":"STARLINK-2406","MEAN_MOTION":"15.06398406","ECCENTRICITY":"0.00014980","TIME_SYSTEM":"UTC","REV_AT_EPOCH":"8378","ARG_OF_PERICENTER":"88.1129","EPHEMERIS_TYPE":"0","MEAN_MOTION_DDOT":"0.0000000000000","PERIAPSIS":"546.181","NORAD_CAT_ID":"47821","APOAPSIS":"548.256","COUNTRY_CODE":"US","ELEMENT_SET_NO":"999","SITE":"AFETR","PERIOD":"95.592","DECAY_DATE":null,"TLE_LINE2":"2 47821  53.0545 234.2591 0001498  88.1129 272.0031 15.06398406 83786","RCS_SIZE":"LARGE","LAUNCH_DATE":"2021-03-11","GP_ID":"211964066","MEAN_MOTION_DOT":"0.00000033","CLASSIFICATION_TYPE":"U","BSTAR":"0.00002111300000","INCLINATION":"53.0545","OBJECT_ID":"2021-018AL","OBJECT_TYPE":"PAYLOAD","TLE_LINE1":"1 47821U 21018AL  22250.47345397  .00000033  00000-0  21113-4 0  9995","FILE":"3562217","MEAN_ELEMENT_THEORY":"SGP4","EPOCH":"2022-09-07T11:21:46.423008","CENTER_NAME":"EARTH","REF_FRAME":"TEME","MEAN_ANOMALY":"272.0031"},{"CENTER_NAME":"EARTH","EPOCH":"2022-09-07T16:21:37.645344","MEAN_ELEMENT_THEORY":"SGP4","MEAN_ANOMALY":"291.5422","REF_FRAME":"TEME","FILE":"3563022","TLE_LINE1":"1 47822U 21018AM  22250.68168571 -.00000440  00000-0 -10621-4 0  9992","OBJECT_TYPE":"PAYLOAD","BSTAR":"-0.00001062100000","INCLINATION":"53.0539","OBJECT_ID":"2021-018AM","LAUNCH_DATE":"2021-03-11","TLE_LINE2":"2 47822  53.0539 243.2985 0001526  68.5729 291.5422 15.06392084 83682","DECAY_DATE":null,"RCS_SIZE":"LARGE","CLASSIFICATION_TYPE":"U","GP_ID":"212009574","MEAN_MOTION_DOT":"-0.00000440","MEAN_MOTION_DDOT":"0.0000000000000","PERIAPSIS":"546.181","NORAD_CAT_ID":"47822","ELEMENT_SET_NO":"999","COUNTRY_CODE":"US","APOAPSIS":"548.295","SITE":"AFETR","PERIOD":"95.593","ARG_OF_PERICENTER":"68.5729","EPHEMERIS_TYPE":"0","RA_OF_ASC_NODE":"243.2985","SEMIMAJOR_AXIS":"6925.373","OBJECT_NAME":"STARLINK-2407","REV_AT_EPOCH":"8368","TIME_SYSTEM":"UTC","MEAN_MOTION":"15.06392084","ECCENTRICITY":"0.00015260"},{"EPHEMERIS_TYPE":"0","ARG_OF_PERICENTER":"70.5875","ECCENTRICITY":"0.00014410","MEAN_MOTION":"15.06390424","TIME_SYSTEM":"UTC","REV_AT_EPOCH":"8383","SEMIMAJOR_AXIS":"6925.378","RA_OF_ASC_NODE":"232.9319","OBJECT_NAME":"STARLINK-2408","GP_ID":"212009326","MEAN_MOTION_DOT":"-0.00000422","CLASSIFICATION_TYPE":"U","DECAY_DATE":null,"TLE_LINE2":"2 47823  53.0530 232.9319 0001441  70.5875 289.5270 15.06390424 83832","RCS_SIZE":"LARGE","LAUNCH_DATE":"2021-03-11","COUNTRY_CODE":"US","ELEMENT_SET_NO":"999","APOAPSIS":"548.241","SITE":"AFETR","PERIOD":"95.593","MEAN_MOTION_DDOT":"0.0000000000000","PERIAPSIS":"546.245","NORAD_CAT_ID":"47823","OBJECT_TYPE":"PAYLOAD","INCLINATION":"53.0530","OBJECT_ID":"2021-018AN","BSTAR":"-0.00000940680000","REF_FRAME":"TEME","MEAN_ANOMALY":"289.5270","MEAN_ELEMENT_THEORY":"SGP4","EPOCH":"2022-09-07T18:19:43.060512","CENTER_NAME":"EARTH","TLE_LINE1":"1 47823U 21018AN  22250.76369283 -.00000422  00000-0 -94068-5 0  9993","FILE":"3563022"},{"OBJECT_TYPE":"PAYLOAD","INCLINATION":"53.0547","OBJECT_ID":"2021-018AP","BSTAR":"-0.00004142800000","REF_FRAME":"TEME","MEAN_ANOMALY":"289.5143","MEAN_ELEMENT_THEORY":"SGP4","CENTER_NAME":"EARTH","EPOCH":"2022-09-07T16:29:37.745088","TLE_LINE1":"1 47824U 21018AP  22250.68724242 -.00000898  00000-0 -41428-4 0  9993","FILE":"3563022","EPHEMERIS_TYPE":"0","ARG_OF_PERICENTER":"70.6004","ECCENTRICITY":"0.00014660","MEAN_MOTION":"15.06390687","TIME_SYSTEM":"UTC","REV_AT_EPOCH":"8381","SEMIMAJOR_AXIS":"6925.377","RA_OF_ASC_NODE":"233.2943","OBJECT_NAME":"STARLINK-2409","GP_ID":"212008573","MEAN_MOTION_DOT":"-0.00000898","CLASSIFICATION_TYPE":"U","TLE_LINE2":"2 47824  53.0547 233.2943 0001466  70.6004 289.5143 15.06390687 83818","DECAY_DATE":null,"RCS_SIZE":"LARGE","LAUNCH_DATE":"2021-03-11","APOAPSIS":"548.257","COUNTRY_CODE":"US","ELEMENT_SET_NO":"999","PERIOD":"95.593","SITE":"AFETR","MEAN_MOTION_DDOT":"0.0000000000000","NORAD_CAT_ID":"47824","PERIAPSIS":"546.227"},{"SITE":"AFETR","PERIOD":"95.593","COUNTRY_CODE":"US","APOAPSIS":"548.293","ELEMENT_SET_NO":"999","PERIAPSIS":"546.175","NORAD_CAT_ID":"47825","MEAN_MOTION_DDOT":"0.0000000000000","GP_ID":"212008823","MEAN_MOTION_DOT":"-0.00000573","CLASSIFICATION_TYPE":"U","TLE_LINE2":"2 47825  53.0548 232.6167 0001529  63.7723 296.3423 15.06393344 83845","RCS_SIZE":"LARGE","DECAY_DATE":null,"LAUNCH_DATE":"2021-03-11","MEAN_MOTION":"15.06393344","ECCENTRICITY":"0.00015290","REV_AT_EPOCH":"8384","TIME_SYSTEM":"UTC","OBJECT_NAME":"STARLINK-2410","RA_OF_ASC_NODE":"232.6167","SEMIMAJOR_AXIS":"6925.369","EPHEMERIS_TYPE":"0","ARG_OF_PERICENTER":"63.7723","TLE_LINE1":"1 47825U 21018AQ  22250.83836082 -.00000573  00000-0 -19584-4 0  9995","FILE":"3563022","REF_FRAME":"TEME","MEAN_ANOMALY":"296.3423","MEAN_ELEMENT_THEORY":"SGP4","CENTER_NAME":"EARTH","EPOCH":"2022-09-07T20:07:14.374848","OBJECT_ID":"2021-018AQ","INCLINATION":"53.0548","BSTAR":"-0.00001958400000","OBJECT_TYPE":"PAYLOAD"},{"GP_ID":"211963816","MEAN_MOTION_DOT":"-0.00001672","CLASSIFICATION_TYPE":"U","RCS_SIZE":"LARGE","TLE_LINE2":"2 47826  53.0549 234.7151 0002108  47.3888 312.7278 15.06393700 83776","DECAY_DATE":null,"LAUNCH_DATE":"2021-03-11","SITE":"AFETR","PERIOD":"95.593","ELEMENT_SET_NO":"999","COUNTRY_CODE":"US","APOAPSIS":"548.693","NORAD_CAT_ID":"47826","PERIAPSIS":"545.773","MEAN_MOTION_DDOT":"0.0000000000000","EPHEMERIS_TYPE":"0","ARG_OF_PERICENTER":"47.3888","ECCENTRICITY":"0.00021080","MEAN_MOTION":"15.06393700","TIME_SYSTEM":"UTC","REV_AT_EPOCH":"8377","OBJECT_NAME":"STARLINK-2411","RA_OF_ASC_NODE":"234.7151","SEMIMAJOR_AXIS":"6925.368","REF_FRAME":"TEME","MEAN_ANOMALY":"312.7278","MEAN_ELEMENT_THEORY":"SGP4","CENTER_NAME":"EARTH","EPOCH":"2022-09-07T08:53:09.060000","TLE_LINE1":"1 47826U 21018AR  22250.37024375 -.00001672  00000-0 -93349-4 0  9991","FILE":"3562217","OBJECT_TYPE":"PAYLOAD","OBJECT_ID":"2021-018AR","INCLINATION":"53.0549","BSTAR":"-0.00009334900000"},{"TLE_LINE1":"1 47827U 21018AS  22250.81718474 -.00004276  00000-0 -26828-3 0  9991","FILE":"3563022","MEAN_ELEMENT_THEORY":"SGP4","EPOCH":"2022-09-07T19:36:44.761536","CENTER_NAME":"EARTH","REF_FRAME":"TEME","MEAN_ANOMALY":"214.3695","BSTAR":"-0.00026828000000","OBJECT_ID":"2021-018AS","INCLINATION":"53.0537","OBJECT_TYPE":"PAYLOAD","PERIAPSIS":"547.066","NORAD_CAT_ID":"47827","MEAN_MOTION_DDOT":"0.0000000000000","PERIOD":"95.591","SITE":"AFETR","APOAPSIS":"547.280","COUNTRY_CODE":"US","ELEMENT_SET_NO":"999","DECAY_DATE":null,"TLE_LINE2":"2 47827  53.0537 222.9334 0000155 145.7304 214.3695 15.06413271 84038","RCS_SIZE":"LARGE","LAUNCH_DATE":"2021-03-11","GP_ID":"212009825","MEAN_MOTION_DOT":"-0.00004276","CLASSIFICATION_TYPE":"U","OBJECT_NAME":"STARLINK-2413","SEMIMAJOR_AXIS":"6925.308","RA_OF_ASC_NODE":"222.9334","ECCENTRICITY":"0.00001550","MEAN_MOTION":"15.06413271","TIME_SYSTEM":"UTC","REV_AT_EPOCH":"8403","ARG_OF_PERICENTER":"145.7304","EPHEMERIS_TYPE":"0"},{"ARG_OF_PERICENTER":"49.7161","EPHEMERIS_TYPE":"0","RA_OF_ASC_NODE":"242.6983","SEMIMAJOR_AXIS":"6925.372","OBJECT_NAME":"STARLINK-2415","TIME_SYSTEM":"UTC","REV_AT_EPOCH":"8370","ECCENTRICITY":"0.00015790","MEAN_MOTION":"15.06392232","LAUNCH_DATE":"2021-03-11","RCS_SIZE":"LARGE","TLE_LINE2":"2 47828  53.0540 242.6983 0001579  49.7161 310.3966 15.06392232 83701","DECAY_DATE":null,"CLASSIFICATION_TYPE":"U","MEAN_MOTION_DOT":"-0.00000513","GP_ID":"212008075","MEAN_MOTION_DDOT":"0.0000000000000","NORAD_CAT_ID":"47828","PERIAPSIS":"546.144","COUNTRY_CODE":"US","APOAPSIS":"548.331","ELEMENT_SET_NO":"999","PERIOD":"95.593","SITE":"AFETR","OBJECT_TYPE":"PAYLOAD","BSTAR":"-0.00001552200000","INCLINATION":"53.0540","OBJECT_ID":"2021-018AT","CENTER_NAME":"EARTH","EPOCH":"2022-09-07T19:39:22.484736","MEAN_ELEMENT_THEORY":"SGP4","MEAN_ANOMALY":"310.3966","REF_FRAME":"TEME","FILE":"3563022","TLE_LINE1":"1 47828U 21018AT  22250.81901024 -.00000513  00000-0 -15522-4 0  9997"}];
